NORAD_CAT_ID,OBJECT_NAME,OBJECT_TYPE,EPOCH,MEAN_MOTION,ECCENTRICITY,INCLINATION,RA_OF_ASC_NODE,ARG_OF_PERICENTER,MEAN_ANOMALY,BSTAR,MEAN_MOTION_DOT,MEAN_MOTION_DDOT,TLE_LINE0,TLE_LINE1,TLE_LINE2,SEMIMAJOR_AXIS,PERIOD,APOGEE,PERIGEE,DECAYED
53038.0,STARLINK-4156,PAYLOAD,2024-01-19 07:09:53,15.08847578,0.000155,53.217,337.4298,101.518,258.5986,4.8293e-05,4.81e-06,0.0,0 STARLINK-4156,1 53038U 22076BE  24019.29854028  .00000481  00000-0  48293-4 0  9993,2 53038  53.2170 337.4298 0001550 101.5180 258.5986 15.08847578 85315,6917.857,95.437,540.794,538.65,0.0
53038.0,STARLINK-4156,PAYLOAD,2024-01-20 02:14:31,15.08845244,0.0001802,53.2166,333.8583,120.057,240.0601,0.00011664,1.569e-05,0.0,0 STARLINK-4156,1 53038U 22076BE  24020.09342091  .00001569  00000-0  11664-3 0  9994,2 53038  53.2166 333.8583 0001802 120.0570 240.0601 15.08845244 85437,6917.864,95.437,540.976,538.483,0.0
53038.0,STARLINK-4156,PAYLOAD,2024-01-20 19:43:46,15.08839268,0.0001381,53.2168,330.5947,83.8976,276.2173,0.00010998,1.463e-05,0.0,0 STARLINK-4156,1 53038U 22076BE  24020.82206835  .00001463  00000-0  10998-3 0  9992,2 53038  53.2168 330.5947 0001381  83.8976 276.2173 15.08839268 86003,6917.883,95.438,540.703,538.792,0.0
53038.0,STARLINK-4156,PAYLOAD,2024-01-20 21:19:09,15.08837494,0.0001422,53.2167,330.2952,90.9976,269.1179,5.972e-05,6.63e-06,0.0,0 STARLINK-4156,1 53038U 22076BE  24020.88830891  .00000663  00000-0  59720-4 0  9991,2 53038  53.2167 330.2952 0001422  90.9976 269.1179 15.08837494 85555,6917.888,95.438,540.737,538.769,0.0
53038.0,STARLINK-4156,PAYLOAD,2024-01-21 02:05:19,15.0883722,0.0001394,53.217,329.4031,88.4277,271.6874,5.4671e-05,5.82e-06,0.0,0 STARLINK-4156,1 53038U 22076BE  24021.08702919  .00000582  00000-0  54671-4 0  9993,2 53038  53.2170 329.4031 0001394  88.4277 271.6874 15.08837220 85581,6917.889,95.438,540.718,538.79,0.0
53038.0,STARLINK-4156,PAYLOAD,2024-01-21 19:34:34,15.08834722,0.0001364,53.2176,326.1318,93.9244,266.1904,6.2362e-05,7.05e-06,0.0,0 STARLINK-4156,1 53038U 22076BE  24021.81567228  .00000705  00000-0  62362-4 0  9999,2 53038  53.2176 326.1318 0001364  93.9244 266.1904 15.08834722 86152,6917.897,95.438,540.705,538.818,0.0
53038.0,STARLINK-4156,PAYLOAD,2024-01-22 03:31:30,15.08818537,0.0001523,53.2173,324.6458,93.7172,266.3995,0.00091816,0.00014346,0.0,0 STARLINK-4156,1 53038U 22076BE  24022.14688157  .00014346  00000-0  91816-3 0  9992,2 53038  53.2173 324.6458 0001523  93.7172 266.3995 15.08818537 86206,6917.946,95.439,540.865,538.757,0.0
53038.0,STARLINK-4156,PAYLOAD,2024-01-22 05:06:54,15.08805493,0.000167,53.2169,324.3482,91.8273,268.291,0.0014517,0.00022869,0.0,0 STARLINK-4156,1 53038U 22076BE  24022.21313089  .00022869  00000-0  14517-2 0  9990,2 53038  53.2169 324.3482 0001670  91.8273 268.2910 15.08805493 86215,6917.986,95.44,541.006,538.696,0.0
53038.0,STARLINK-4156,PAYLOAD,2024-01-23 01:46:53,15.08839586,0.000165,53.2191,320.4826,80.8643,279.2536,0.00010537,1.389e-05,0.0,0 STARLINK-4156,1 53038U 22076BE  24023.07423259  .00001389  00000-0  10537-3 0  9999,2 53038  53.2191 320.4826 0001650  80.8643 279.2536 15.08839586 86346,6917.882,95.438,540.888,538.605,0.0
53038.0,STARLINK-4156,PAYLOAD,2024-01-24 01:37:40,15.08845327,0.0001827,53.2193,316.0227,74.1122,286.0072,3.4017e-05,2.53e-06,0.0,0 STARLINK-4156,1 53038U 22076BE  24024.06783092  .00000253  00000-0  34017-4 0  9992,2 53038  53.2193 316.0227 0001827  74.1122 286.0072 15.08845327 86035,6917.864,95.437,540.993,538.465,0.0
53038.0,STARLINK-4156,PAYLOAD,2024-01-25 01:28:27,15.08844244,0.0002022,53.2181,311.5621,58.3906,301.7283,9.6572e-05,1.249e-05,0.0,0 STARLINK-4156,1 53038U 22076BE  24025.06142961  .00001249  00000-0  96572-4 0  9997,2 53038  53.2181 311.5621 0002022  58.3906 301.7283 15.08844244 86645,6917.867,95.437,541.131,538.334,0.0
53038.0,STARLINK-4156,PAYLOAD,2024-01-25 22:08:28,15.08817145,0.0001908,53.2179,307.7003,118.8989,241.2194,0.00022895,3.355e-05,0.0,0 STARLINK-4156,1 53038U 22076BE  24025.92255764  .00003355  00000-0  22895-3 0  9994,2 53038  53.2179 307.7003 0001908 118.8989 241.2194 15.08817145 86311,6917.95,95.439,541.135,538.495,0.0
53038.0,STARLINK-4156,PAYLOAD,2024-01-26 01:19:15,15.08837899,0.0001459,53.2178,307.1017,77.9884,282.1272,3.2545e-05,2.3e-06,0.0,0 STARLINK-4156,1 53038U 22076BE  24026.05503474  .00000230  00000-0  32545-4 0  9996,2 53038  53.2178 307.1017 0001459  77.9884 282.1272 15.08837899 86790,6917.887,95.438,540.761,538.742,0.0
53038.0,STARLINK-4156,PAYLOAD,2024-01-26 18:48:29,15.08867747,0.0001465,53.2175,303.83,78.1402,281.9754,-0.00031182,-5.251e-05,0.0,0 STARLINK-4156,1 53038U 22076BE  24026.78367239 -.00005251  00000-0 -31182-3 0  9998,2 53038  53.2175 303.8300 0001465  78.1402 281.9754 15.08867747 86901,6917.796,95.436,540.674,538.647,0.0
53038.0,STARLINK-4156,PAYLOAD,2024-01-27 01:10:01,15.08853424,0.0001317,53.2174,302.6412,79.5826,280.5315,2.8516e-05,1.66e-06,0.0,0 STARLINK-4156,1 53038U 22076BE  24027.04862659  .00000166  00000-0  28516-4 0  9990,2 53038  53.2174 302.6412 0001317  79.5826 280.5315 15.08853424 86480,6917.839,95.437,540.615,538.793,0.0
53038.0,STARLINK-4156,PAYLOAD,2024-01-27 18:39:16,15.08838338,0.0001467,53.218,299.3695,96.1854,263.9305,5.693e-05,6.18e-06,0.0,0 STARLINK-4156,1 53038U 22076BE  24027.77727717  .00000618  00000-0  56930-4 0  9998,2 53038  53.2180 299.3695 0001467  96.1854 263.9305 15.08838338 87059,6917.885,95.438,540.765,538.736,0.0
53038.0,STARLINK-4156,PAYLOAD,2024-01-27 21:50:02,15.0883723,0.0001339,53.2176,298.7758,94.9299,265.1846,6.8192e-05,7.97e-06,0.0,0 STARLINK-4156,1 53038U 22076BE  24027.90975688  .00000797  00000-0  68192-4 0  9996,2 53038  53.2176 298.7758 0001339  94.9299 265.1846 15.08837230 86619,6917.889,95.438,540.68,538.828,0.0
53038.0,STARLINK-4156,PAYLOAD,2024-01-28 04:11:35,15.08840516,0.0001421,53.2177,297.5843,103.3466,256.7685,7.5562e-05,9.15e-06,0.0,0 STARLINK-4156,1 53038U 22076BE  24028.17471393  .00000915  00000-0  75562-4 0  9991,2 53038  53.2177 297.5843 0001421 103.3466 256.7685 15.08840516 86657,6917.879,95.438,540.727,538.761,0.0
53038.0,STARLINK-4156,PAYLOAD,2024-01-28 21:40:50,15.08836565,0.0001472,53.2179,294.3105,105.1086,255.0069,-4.4829e-05,-1.001e-05,0.0,0 STARLINK-4156,1 53038U 22076BE  24028.90336248 -.00001001  00000-0 -44829-4 0  9992,2 53038  53.2179 294.3105 0001472 105.1086 255.0069 15.08836565 86768,6917.891,95.438,540.774,538.738,0.0
53038.0,STARLINK-4156,PAYLOAD,2024-01-28 23:16:13,15.08836993,0.0001498,53.2183,294.013,105.4109,254.7048,-4.2537e-05,-9.65e-06,0.0,0 STARLINK-4156,1 53038U 22076BE  24028.96960220 -.00000965  00000-0 -42537-4 0  9993,2 53038  53.2183 294.0130 0001498 105.4109 254.7048 15.08836993 87236,6917.89,95.438,540.791,538.718,0.0
53038.0,STARLINK-4156,PAYLOAD,2024-01-29 16:45:28,15.08836866,0.0001599,53.2186,290.7416,107.3688,252.7479,5.9542e-05,6.6e-06,0.0,0 STARLINK-4156,1 53038U 22076BE  24029.69824147  .00000660  00000-0  59542-4 0  9995,2 53038  53.2186 290.7416 0001599 107.3688 252.7479 15.08836866 86889,6917.89,95.438,540.861,538.649,0.0
53038.0,STARLINK-4156,PAYLOAD,2024-01-30 00:42:23,15.08845985,0.0001383,53.2177,289.2612,102.1123,258.0024,0.00012256,1.663e-05,0.0,0 STARLINK-4156,1 53038U 22076BE  24030.02943335  .00001663  00000-0  12256-3 0  9999,2 53038  53.2177 289.2612 0001383 102.1123 258.0024 15.08845985 87392,6917.862,95.437,540.684,538.77,0.0
53038.0,STARLINK-4156,PAYLOAD,2024-01-30 22:57:47,15.08843115,0.0001309,53.217,285.1011,98.5024,261.6117,5.1266e-05,5.28e-06,0.0,0 STARLINK-4156,1 53038U 22076BE  24030.95679763  .00000528  00000-0  51266-4 0  9996,2 53038  53.2170 285.1011 0001309  98.5024 261.6117 15.08843115 87070,6917.871,95.437,540.641,538.83,0.0
53038.0,STARLINK-4156,PAYLOAD,2024-01-31 00:33:10,15.08843819,0.0001302,53.2171,284.8039,94.9871,265.127,5.5227e-05,5.91e-06,0.0,0 STARLINK-4156,1 53038U 22076BE  24031.02303709  .00000591  00000-0  55227-4 0  9990,2 53038  53.2171 284.8039 0001302  94.9871 265.1270 15.08843819 87542,6917.869,95.437,540.634,538.833,0.0
53038.0,STARLINK-4156,PAYLOAD,2024-01-31 16:27:02,15.08841422,0.0001744,53.2176,281.8313,68.7327,291.3852,3.719e-05,3.04e-06,0.0,0 STARLINK-4156,1 53038U 22076BE  24031.68544034  .00000304  00000-0  37190-4 0  9991,2 53038  53.2176 281.8313 0001744  68.7327 291.3852 15.08841422 87189,6917.876,95.437,540.948,538.535,0.0
53038.0,STARLINK-4156,PAYLOAD,2024-02-01 14:42:26,15.08839179,0.0001788,53.2176,277.6678,67.4622,292.6559,4.2176e-05,3.83e-06,0.0,0 STARLINK-4156,1 53038U 22076BE  24032.61280140  .00000383  00000-0  42176-4 0  9997,2 53038  53.2176 277.6678 0001788  67.4622 292.6559 15.08839179 87328,6917.883,95.438,540.985,538.511,0.0
53038.0,STARLINK-4156,PAYLOAD,2024-02-02 19:19:22,15.08839554,0.0001353,53.2168,272.3129,92.9719,267.1428,2.5877e-05,1.24e-06,0.0,0 STARLINK-4156,1 53038U 22076BE  24033.80512007  .00000124  00000-0  25877-4 0  9991,2 53038  53.2168 272.3129 0001353  92.9719 267.1428 15.08839554 87969,6917.882,95.438,540.683,538.811,0.0
53038.0,STARLINK-4156,PAYLOAD,2024-02-02 22:30:08,15.08839913,0.0001485,53.2169,271.7167,98.6649,261.4511,5.8849e-05,6.49e-06,0.0,0 STARLINK-4156,1 53038U 22076BE  24033.93759888  .00000649  00000-0  58849-4 0  9992,2 53038  53.2169 271.7167 0001485  98.6649 261.4511 15.08839913 87527,6917.881,95.438,540.773,538.718,0.0
53038.0,STARLINK-4156,PAYLOAD,2024-02-03 01:40:54,15.08841475,0.0001396,53.216,271.1203,99.8202,260.2947,6.8127e-05,7.97e-06,0.0,0 STARLINK-4156,1 53038U 22076BE  24034.07007732  .00000797  00000-0  68127-4 0  9996,2 53038  53.2160 271.1203 0001396  99.8202 260.2947 15.08841475 87540,6917.876,95.437,540.707,538.775,0.0
53038.0,STARLINK-4156,PAYLOAD,2024-02-03 20:45:32,15.08839024,0.0001445,53.2157,267.5511,105.0817,255.0335,4.9149e-05,4.94e-06,0.0,0 STARLINK-4156,1 53038U 22076BE  24034.86495991  .00000494  00000-0  49149-4 0  9998,2 53038  53.2157 267.5511 0001445 105.0817 255.0335 15.08839024 88129,6917.883,95.438,540.748,538.749,0.0
